STARLINK-1147
1 25095C 20006BD  21325.12796204  .00003731  00000-0  24992-3 0  3251
2 25095  53.0549  92.6609 0001263  79.5253  46.0704 15.06403594    15
